FENGYUN 1C DEB          
1 32130U 99025CRY 17345.02708553  .00000167  00000-0  77651-4 0  9998
2 32130  98.6880  77.9971 0090547 273.6393  85.4438 14.30720111543776
